[Satellite]
VERSION=1.1
NAME=NANOSATC-BR1
NICKNAME=NANOSATC-BR1
TLE1=1 40024U 14033Q   15055.40793216  .00003001  00000-0  34166-3 0  9996
TLE2=2 40024  97.9634 315.5356 0012550 187.2493 172.8505 14.86903397 37036
